{
  "type": "FeatureCollection",
  "features": [
    {
      "type": "Feature",
      "properties": {
        "norad_id": 57400,
        "name": "TIANMU-1 08",
        "group": "weather",
        "lat": -54.253324852071046,
        "lon": 58.47739978130552,
        "alt_km": 489.3572848621361,
        "timestamp": "2025-12-24T20:42:20.662174+00:00",
        "meta_object_name": "TIANMU-1 08",
        "meta_object_id": "2023-101B",
        "meta_epoch": "2025-12-24T06:48:08.339040",
        "meta_mean_motion": 15.28213074,
        "meta_eccentricity": 0.00069905,
        "meta_inclination": 97.2845,
        "meta_ra_of_asc_node": 47.6745,
        "meta_arg_of_pericenter": 51.3078,
        "meta_mean_anomaly": 308.8786,
        "meta_ephemeris_type": 0,
        "meta_classification_type": "U",
        "meta_norad_cat_id": 57400,
        "meta_element_set_no": 999,
        "meta_rev_at_epoch": 13491,
        "meta_bstar": 0.00029366725,
        "meta_mean_motion_dot": 8.007e-05,
        "meta_mean_motion_ddot": 0,
        "tle_line1": "1 57400U 23101B   25358.28342985  .00008007  00000+0  29367-3 0  9991",
        "tle_line2": "2 57400  97.2845  47.6745 0006990  51.3078 308.8786 15.28213074134915"
      },
      "geometry": {
        "type": "Point",
        "coordinates": [
          58.47739978130552,
          -54.253324852071046
        ]
      }
    },
    {
      "type": "Feature",
      "properties": {
        "norad_id": 57401,
        "name": "TIANMU-1 09",
        "group": "weather",
        "lat": 18.991618670987837,
        "lon": 45.22620086831777,
        "alt_km": 477.66910455761445,
        "timestamp": "2025-12-24T20:42:20.662184+00:00",
        "meta_object_name": "TIANMU-1 09",
        "meta_object_id": "2023-101C",
        "meta_epoch": "2025-12-24T08:03:02.854944",
        "meta_mean_motion": 15.28248902,
        "meta_eccentricity": 0.00062617,
        "meta_inclination": 97.2801,
        "meta_ra_of_asc_node": 47.2326,
        "meta_arg_of_pericenter": 52.1246,
        "meta_mean_anomaly": 308.0559,
        "meta_ephemeris_type": 0,
        "meta_classification_type": "U",
        "meta_norad_cat_id": 57401,
        "meta_element_set_no": 999,
        "meta_rev_at_epoch": 13492,
        "meta_bstar": 0.0002893841,
        "meta_mean_motion_dot": 7.897e-05,
        "meta_mean_motion_ddot": 0,
        "tle_line1": "1 57401U 23101C   25358.33544971  .00007897  00000+0  28938-3 0  9996",
        "tle_line2": "2 57401  97.2801  47.2326 0006261  52.1246 308.0559 15.28248902134925"
      },
      "geometry": {
        "type": "Point",
        "coordinates": [
          45.22620086831777,
          18.991618670987837
        ]
      }
    },
    {
      "type": "Feature",
      "properties": {
        "norad_id": 57402,
        "name": "TIANMU-1 10",
        "group": "weather",
        "lat": -10.949734508537775,
        "lon": -132.8081480273961,
        "alt_km": 489.8559193394003,
        "timestamp": "2025-12-24T20:42:20.662194+00:00",
        "meta_object_name": "TIANMU-1 10",
        "meta_object_id": "2023-101D",
        "meta_epoch": "2025-12-24T07:18:06.852672",
        "meta_mean_motion": 15.28239796,
        "meta_eccentricity": 0.0007997,
        "meta_inclination": 97.2882,
        "meta_ra_of_asc_node": 48.0643,
        "meta_arg_of_pericenter": 49.5905,
        "meta_mean_anomaly": 310.6032,
        "meta_ephemeris_type": 0,
        "meta_classification_type": "U",
        "meta_norad_cat_id": 57402,
        "meta_element_set_no": 999,
        "meta_rev_at_epoch": 13491,
        "meta_bstar": 0.00029633065,
        "meta_mean_motion_dot": 8.089e-05,
        "meta_mean_motion_ddot": 0,
        "tle_line1": "1 57402U 23101D   25358.30424598  .00008089  00000+0  29633-3 0  9993",
        "tle_line2": "2 57402  97.2882  48.0643 0007997  49.5905 310.6032 15.28239796134910"
      },
      "geometry": {
        "type": "Point",
        "coordinates": [
          -132.8081480273961,
          -10.949734508537775
        ]
      }
    },
    {
      "type": "Feature",
      "properties": {
        "norad_id": 57490,
        "name": "FENGYUN 3F",
        "group": "weather",
        "lat": 52.5941438297574,
        "lon": 55.40000744697223,
        "alt_km": 820.4669283334579,
        "timestamp": "2025-12-24T20:42:20.662204+00:00",
        "meta_object_name": "FENGYUN 3F",
        "meta_object_id": "2023-111A",
        "meta_epoch": "2025-12-24T06:55:30.096192",
        "meta_mean_motion": 14.19896507,
        "meta_eccentricity": 8.203e-05,
        "meta_inclination": 98.7068,
        "meta_ra_of_asc_node": 66.3949,
        "meta_arg_of_pericenter": 116.7427,
        "meta_mean_anomaly": 243.3833,
        "meta_ephemeris_type": 0,
        "meta_classification_type": "U",
        "meta_norad_cat_id": 57490,
        "meta_element_set_no": 999,
        "meta_rev_at_epoch": 12404,
        "meta_bstar": 5.983933e-05,
        "meta_mean_motion_dot": 8.3e-07,
        "meta_mean_motion_ddot": 0,
        "tle_line1": "1 57490U 23111A   25358.28854278  .00000083  00000+0  59839-4 0  9998",
        "tle_line2": "2 57490  98.7068  66.3949 0000820 116.7427 243.3833 14.19896507124047"
      },
      "geometry": {
        "type": "Point",
        "coordinates": [
          55.40000744697223,
          52.5941438297574
        ]
      }
    },
    {
      "type": "Feature",
      "properties": {
        "norad_id": 58584,
        "name": "ARKTIKA-M 2",
        "group": "weather",
        "lat": 45.401934329435065,
        "lon": -155.62650987055227,
        "alt_km": 25633.8689213468,
        "timestamp": "2025-12-24T20:42:20.662218+00:00",
        "meta_object_name": "ARKTIKA-M 2",
        "meta_object_id": "2023-198A",
        "meta_epoch": "2025-12-23T19:04:51.780000",
        "meta_mean_motion": 2.00602438,
        "meta_eccentricity": 0.68658211,
        "meta_inclination": 63.2256,
        "meta_ra_of_asc_node": 173.6885,
        "meta_arg_of_pericenter": 268.0594,
        "meta_mean_anomaly": 18.8414,
        "meta_ephemeris_type": 0,
        "meta_classification_type": "U",
        "meta_norad_cat_id": 58584,
        "meta_element_set_no": 999,
        "meta_rev_at_epoch": 1480,
        "meta_bstar": 0,
        "meta_mean_motion_dot": 2.16e-06,
        "meta_mean_motion_ddot": 0,
        "tle_line1": "1 58584U 23198A   25357.79504375  .00000216  00000+0  00000+0 0  9992",
        "tle_line2": "2 58584  63.2256 173.6885 6865821 268.0594  18.8414  2.00602438 14808"
      },
      "geometry": {
        "type": "Point",
        "coordinates": [
          -155.62650987055227,
          45.401934329435065
        ]
      }
    },
    {
      "type": "Feature",
      "properties": {
        "norad_id": 58645,
        "name": "TIANMU-1 11",
        "group": "weather",
        "lat": -37.59470863361075,
        "lon": -167.43840952708328,
        "alt_km": 494.1249093238839,
        "timestamp": "2025-12-24T20:42:20.662230+00:00",
        "meta_object_name": "TIANMU-1 11",
        "meta_object_id": "2023-205A",
        "meta_epoch": "2025-12-24T07:09:07.466112",
        "meta_mean_motion": 15.24734055,
        "meta_eccentricity": 0.00075408,
        "meta_inclination": 97.3595,
        "meta_ra_of_asc_node": 17.718,
        "meta_arg_of_pericenter": 260.8843,
        "meta_mean_anomaly": 99.1542,
        "meta_ephemeris_type": 0,
        "meta_classification_type": "U",
        "meta_norad_cat_id": 58645,
        "meta_element_set_no": 999,
        "meta_rev_at_epoch": 11085,
        "meta_bstar": 0.00026038047,
        "meta_mean_motion_dot": 6.38e-05,
        "meta_mean_motion_ddot": 0,
        "tle_line1": "1 58645U 23205A   25358.29800308  .00006380  00000+0  26038-3 0  9991",
        "tle_line2": "2 58645  97.3595  17.7180 0007540 260.8843  99.1542 15.24734055110850"
      },
      "geometry": {
        "type": "Point",
        "coordinates": [
          -167.43840952708328,
          -37.59470863361075
        ]
      }
    },
    {
      "type": "Feature",
      "properties": {
        "norad_id": 58646,
        "name": "TIANMU-1 12",
        "group": "weather",
        "lat": 64.04555435555089,
        "lon": 2.6779025358505337,
        "alt_km": 489.72634251504223,
        "timestamp": "2025-12-24T20:42:20.662240+00:00",
        "meta_object_name": "TIANMU-1 12",
        "meta_object_id": "2023-205B",
        "meta_epoch": "2025-12-24T07:49:11.407008",
        "meta_mean_motion": 15.24621584,
        "meta_eccentricity": 0.00059469,
        "meta_inclination": 97.3584,
        "meta_ra_of_asc_node": 17.5469,
        "meta_arg_of_pericenter": 238.57,
        "meta_mean_anomaly": 121.4957,
        "meta_ephemeris_type": 0,
        "meta_classification_type": "U",
        "meta_norad_cat_id": 58646,
        "meta_element_set_no": 999,
        "meta_rev_at_epoch": 11084,
        "meta_bstar": 0.00027817535,
        "meta_mean_motion_dot": 6.796e-05,
        "meta_mean_motion_ddot": 0,
        "tle_line1": "1 58646U 23205B   25358.32582647  .00006796  00000+0  27818-3 0  9997",
        "tle_line2": "2 58646  97.3584  17.5469 0005946 238.5700 121.4957 15.24621584110849"
      },
      "geometry": {
        "type": "Point",
        "coordinates": [
          2.6779025358505337,
          64.04555435555089
        ]
      }
    }
  ]
}